[{"OBJECT_NAME":"STARLINK-5539","OBJECT_ID":"2023-028G","EPOCH":"2026-03-09T20:34:33.735360","MEAN_MOTION":14.98332394,"ECCENTRICITY":0.00025824,"INCLINATION":69.9992,"RA_OF_ASC_NODE":244.0974,"ARG_OF_PERICENTER":271.1358,"MEAN_ANOMALY":88.9505,"EPHEMERIS_TYPE":0,"CLASSIFICATION_TYPE":"U","NORAD_CAT_ID":55747,"ELEMENT_SET_NO":999,"REV_AT_EPOCH":16606,"BSTAR":3.4604831e-5,"MEAN_MOTION_DOT":3.2e-6,"MEAN_MOTION_DDOT":0},{"OBJECT_NAME":"FENGYUN 1C DEB","OBJECT_ID":"1999-025ECZ","EPOCH":"2026-03-06T15:56:09.405600","MEAN_MOTION":14.4183664,"ECCENTRICITY":0.02789031,"INCLINATION":98.8006,"RA_OF_ASC_NODE":17.7433,"ARG_OF_PERICENTER":114.6839,"MEAN_ANOMALY":248.3662,"EPHEMERIS_TYPE":0,"CLASSIFICATION_TYPE":"U","NORAD_CAT_ID":37017,"ELEMENT_SET_NO":999,"REV_AT_EPOCH":62370,"BSTAR":0.0010503478,"MEAN_MOTION_DOT":5.43e-5,"MEAN_MOTION_DDOT":0}]
